0 SL-18 DEB
1 35361U 93014BL  13294.82759234  .00012409  00000-0  25773-2 0  3170
2 35361 075.7406 358.6033 0124243 306.8740 248.2512 14.55348668387429
